{
  "norad_id": 64354,
  "name": "STARLINK-34473",
  "history": [
    {
      "epoch": "2026-04-14T14:45:01.484928Z",
      "apogee_km": 574.1089624270935,
      "perigee_km": 558.4798251322536,
      "latitude_deg": -2.6217240695049775e-06,
      "longitude_deg": -120.18747879534239,
      "height_km": 573.4954903497356,
      "semi_major_axis_km": 6944.431393779673,
      "eccentricity": 0.0011253,
      "inclination_deg": 69.9997,
      "raan_deg": 303.8572,
      "arg_perigee_deg": 232.4046,
      "mean_anomaly_deg": 127.6093,
      "mean_motion_rev_day": 15.00195037
    },
    {
      "epoch": "2026-04-15T16:24:10.428192Z",
      "apogee_km": 574.0078656337027,
      "perigee_km": 570.0893509877378,
      "latitude_deg": -1.4098340854217265e-05,
      "longitude_deg": -148.71975469303544,
      "height_km": 574.6397220860998,
      "semi_major_axis_km": 6950.1856083107195,
      "eccentricity": 0.0002819,
      "inclination_deg": 69.9993,
      "raan_deg": 301.1657,
      "arg_perigee_deg": 265.2022,
      "mean_anomaly_deg": 94.8815,
      "mean_motion_rev_day": 14.98332355
    },
    {
      "epoch": "2026-04-16T14:50:03.272352Z",
      "apogee_km": 573.960571741949,
      "perigee_km": 570.1073969482277,
      "latitude_deg": -9.29689480422047e-06,
      "longitude_deg": -128.46785778212313,
      "height_km": 574.5891194490429,
      "semi_major_axis_km": 6950.170984345088,
      "eccentricity": 0.0002772,
      "inclination_deg": 69.9993,
      "raan_deg": 298.809,
      "arg_perigee_deg": 266.1924,
      "mean_anomaly_deg": 93.8918,
      "mean_motion_rev_day": 14.98337084
    },
    {
      "epoch": "2026-04-17T21:16:36.477984Z",
      "apogee_km": 573.9500650979271,
      "perigee_km": 570.1163512111079,
      "latitude_deg": 8.344749277890598e-05,
      "longitude_deg": 130.44538934287505,
      "height_km": 574.5157493570691,
      "semi_major_axis_km": 6950.170208154517,
      "eccentricity": 0.0002758,
      "inclination_deg": 69.9995,
      "raan_deg": 295.6108,
      "arg_perigee_deg": 268.3451,
      "mean_anomaly_deg": 91.7393,
      "mean_motion_rev_day": 14.98337335
    },
    {
      "epoch": "2026-04-18T20:00:01.000224Z",
      "apogee_km": 573.9813217593846,
      "perigee_km": 570.164266540437,
      "latitude_deg": 59.06429660791104,
      "longitude_deg": -176.5717087410907,
      "height_km": 583.2116540934486,
      "semi_major_axis_km": 6950.2097941499105,
      "eccentricity": 0.0002746,
      "inclination_deg": 69.9995,
      "raan_deg": 293.2226,
      "arg_perigee_deg": 269.9954,
      "mean_anomaly_deg": 155.7316,
      "mean_motion_rev_day": 14.98324534
    },
    {
      "epoch": "2026-04-19T19:44:30.078240Z",
      "apogee_km": 574.0149798913708,
      "perigee_km": 570.0561615950764,
      "latitude_deg": -2.771223799880363e-05,
      "longitude_deg": 146.68126860945398,
      "height_km": 574.5833972883795,
      "semi_major_axis_km": 6950.172570743223,
      "eccentricity": 0.0002848,
      "inclination_deg": 69.9995,
      "raan_deg": 290.7283,
      "arg_perigee_deg": 266.5088,
      "mean_anomaly_deg": 93.5745,
      "mean_motion_rev_day": 14.98336571
    },
    {
      "epoch": "2026-04-20T05:21:18.507168Z",
      "apogee_km": 574.0203225917103,
      "perigee_km": 570.0712287385777,
      "latitude_deg": -8.261090196851408e-06,
      "longitude_deg": 1.0744772696863585,
      "height_km": 574.5928464392547,
      "semi_major_axis_km": 6950.182775665144,
      "eccentricity": 0.0002841,
      "inclination_deg": 69.9995,
      "raan_deg": 289.7181,
      "arg_perigee_deg": 266.5218,
      "mean_anomaly_deg": 93.5616,
      "mean_motion_rev_day": 14.98333271
    },
    {
      "epoch": "2026-04-21T18:12:25.214688Z",
      "apogee_km": 573.8307720894918,
      "perigee_km": 570.3570466809815,
      "latitude_deg": -2.739338583165396e-05,
      "longitude_deg": 162.91156639763287,
      "height_km": 574.6334862520844,
      "semi_major_axis_km": 6950.230909385236,
      "eccentricity": 0.0002499,
      "inclination_deg": 70.0022,
      "raan_deg": 285.8466,
      "arg_perigee_deg": 266.287,
      "mean_anomaly_deg": 93.8003,
      "mean_motion_rev_day": 14.98317706
    },
    {
      "epoch": "2026-04-22T11:49:54.084576Z",
      "apogee_km": 573.9413468984849,
      "perigee_km": 570.174758191708,
      "latitude_deg": -6.203522470309706e-05,
      "longitude_deg": -104.03365931032498,
      "height_km": 574.5405306727693,
      "semi_major_axis_km": 6950.195052545096,
      "eccentricity": 0.00027097,
      "inclination_deg": 70.0003,
      "raan_deg": 283.9955,
      "arg_perigee_deg": 268.3179,
      "mean_anomaly_deg": 91.7669,
      "mean_motion_rev_day": 14.98329301
    },
    {
      "epoch": "2026-04-23T11:51:55.094688Z",
      "apogee_km": 574.1542730072824,
      "perigee_km": 569.9136956828943,
      "latitude_deg": 1.4053692219133702e-05,
      "longitude_deg": -108.05166812929177,
      "height_km": 574.3547043341101,
      "semi_major_axis_km": 6950.170984345088,
      "eccentricity": 0.00030507,
      "inclination_deg": 69.9997,
      "raan_deg": 281.4687,
      "arg_perigee_deg": 272.8859,
      "mean_anomaly_deg": 87.1951,
      "mean_motion_rev_day": 14.98337084
    },
    {
      "epoch": "2026-04-24T19:54:35.820000Z",
      "apogee_km": 574.087807100007,
      "perigee_km": 569.9330089794812,
      "latitude_deg": 1.2737218505013214e-06,
      "longitude_deg": 126.59640995306424,
      "height_km": 574.5445568362279,
      "semi_major_axis_km": 6950.147408039744,
      "eccentricity": 0.0002989,
      "inclination_deg": 70.0,
      "raan_deg": 278.1025,
      "arg_perigee_deg": 267.0565,
      "mean_anomaly_deg": 93.0252,
      "mean_motion_rev_day": 14.98344708
    },
    {
      "epoch": "2026-04-25T19:56:36.545856Z",
      "apogee_km": 574.2702687911024,
      "perigee_km": 569.6859728574054,
      "latitude_deg": 5.558861180882925e-05,
      "longitude_deg": 122.58218280422288,
      "height_km": 574.785528335597,
      "semi_major_axis_km": 6950.115120824254,
      "eccentricity": 0.0003298,
      "inclination_deg": 69.9998,
      "raan_deg": 275.5783,
      "arg_perigee_deg": 260.4663,
      "mean_anomaly_deg": 99.6124,
      "mean_motion_rev_day": 14.98355149
    },
    {
      "epoch": "2026-04-26T19:58:35.410656Z",
      "apogee_km": 573.8483573940402,
      "perigee_km": 569.9389651470747,
      "latitude_deg": 1.896048558376965e-05,
      "longitude_deg": 118.5736990200349,
      "height_km": 575.0441223273134,
      "semi_major_axis_km": 6950.030661270557,
      "eccentricity": 0.00028125,
      "inclination_deg": 70.0,
      "raan_deg": 273.0521,
      "arg_perigee_deg": 248.2844,
      "mean_anomaly_deg": 111.8016,
      "mean_motion_rev_day": 14.98382462
    },
    {
      "epoch": "2026-04-27T20:00:37.319328Z",
      "apogee_km": 574.1731045435181,
      "perigee_km": 569.898748193802,
      "latitude_deg": 1.0794738501977014e-05,
      "longitude_deg": 114.55410834055941,
      "height_km": 574.5387506602292,
      "semi_major_axis_km": 6950.17292636866,
      "eccentricity": 0.0003075,
      "inclination_deg": 69.9999,
      "raan_deg": 270.5275,
      "arg_perigee_deg": 267.9812,
      "mean_anomaly_deg": 92.0995,
      "mean_motion_rev_day": 14.98336456
    },
    {
      "epoch": "2026-04-28T20:00:01.000224Z",
      "apogee_km": 574.3845526471405,
      "perigee_km": 569.8182460187791,
      "latitude_deg": -9.268283200585858,
      "longitude_deg": 107.8129190166305,
      "height_km": 575.6927141463185,
      "semi_major_axis_km": 6950.2383993329595,
      "eccentricity": 0.0003285,
      "inclination_deg": 70.0001,
      "raan_deg": 268.0067,
      "arg_perigee_deg": 272.928,
      "mean_anomaly_deg": 77.3414,
      "mean_motion_rev_day": 14.98315284
    },
    {
      "epoch": "2026-04-29T18:28:30.917856Z",
      "apogee_km": 574.2951141557887,
      "perigee_km": 569.7747223401593,
      "latitude_deg": 5.902705388462208e-05,
      "longitude_deg": 130.79085447703346,
      "height_km": 574.4516497640831,
      "semi_major_axis_km": 6950.171918247974,
      "eccentricity": 0.0003252,
      "inclination_deg": 70.0008,
      "raan_deg": 265.6458,
      "arg_perigee_deg": 270.2795,
      "mean_anomaly_deg": 89.7992,
      "mean_motion_rev_day": 14.98336782
    },
    {
      "epoch": "2026-04-30T13:42:07.590816Z",
      "apogee_km": 574.209783789297,
      "perigee_km": 569.8393831823687,
      "latitude_deg": -7.4489894624583815e-06,
      "longitude_deg": -160.42179261325649,
      "height_km": 574.5439943464852,
      "semi_major_axis_km": 6950.161583485832,
      "eccentricity": 0.00031441,
      "inclination_deg": 70.0008,
      "raan_deg": 263.6256,
      "arg_perigee_deg": 267.594,
      "mean_anomaly_deg": 92.4859,
      "mean_motion_rev_day": 14.98340124
    },
    {
      "epoch": "2026-05-01T15:20:16.708128Z",
      "apogee_km": 574.1802578813604,
      "perigee_km": 569.910204922031,
      "latitude_deg": -4.6274387320309375e-05,
      "longitude_deg": 171.29327587203667,
      "height_km": 574.6650996809393,
      "semi_major_axis_km": 6950.182231401695,
      "eccentricity": 0.00030719,
      "inclination_deg": 70.0015,
      "raan_deg": 260.9315,
      "arg_perigee_deg": 264.8348,
      "mean_anomaly_deg": 95.246,
      "mean_motion_rev_day": 14.98333447
    },
    {
      "epoch": "2026-05-03T18:36:34.923744Z",
      "apogee_km": 574.2766497465509,
      "perigee_km": 569.7951782516047,
      "latitude_deg": 3.067207198951255e-05,
      "longitude_deg": 114.72494528658235,
      "height_km": 574.5082717295963,
      "semi_major_axis_km": 6950.1729139990775,
      "eccentricity": 0.0003224,
      "inclination_deg": 70.0022,
      "raan_deg": 255.5447,
      "arg_perigee_deg": 268.8616,
      "mean_anomaly_deg": 91.2174,
      "mean_motion_rev_day": 14.9833646
    }
  ]
}